[{"OBJECT_NAME":"STARLINK-30215","OBJECT_ID":"2023-105R","EPOCH":"2026-03-09T22:00:01.999584","MEAN_MOTION":15.21884858,"ECCENTRICITY":0.00010316,"INCLINATION":42.9992,"RA_OF_ASC_NODE":258.6075,"ARG_OF_PERICENTER":307.4613,"MEAN_ANOMALY":139.0312,"EPHEMERIS_TYPE":0,"CLASSIFICATION_TYPE":"U","NORAD_CAT_ID":57445,"ELEMENT_SET_NO":999,"REV_AT_EPOCH":578,"BSTAR":0.0053865498,"MEAN_MOTION_DOT":0.00126903,"MEAN_MOTION_DDOT":0},{"OBJECT_NAME":"ASAP-S","OBJECT_ID":"2011-076G","EPOCH":"2026-03-09T17:04:01.263936","MEAN_MOTION":15.2280587,"ECCENTRICITY":0.00082377,"INCLINATION":98.0168,"RA_OF_ASC_NODE":352.0786,"ARG_OF_PERICENTER":129.3662,"MEAN_ANOMALY":230.8304,"EPHEMERIS_TYPE":0,"CLASSIFICATION_TYPE":"U","NORAD_CAT_ID":38013,"ELEMENT_SET_NO":999,"REV_AT_EPOCH":77768,"BSTAR":0.00058516402,"MEAN_MOTION_DOT":0.00013629,"MEAN_MOTION_DDOT":0}]
